GLOBALSTAR M023 [+]     
1 25621U 99004A   24033.61013109 -.00000006  00000+0  54289-3 0  9998
2 25621  52.0106 137.6368 0011054 100.8137   4.3602 12.62445823152502
GLOBALSTAR M040 [-]     
1 25622U 99004B   24033.63030391 -.00000091  00000+0  70935-4 0  9994
2 25622  51.9916 140.9972 0001023  71.9561  36.8777 12.61965436152051
GLOBALSTAR M036 [-]     
1 25623U 99004C   24033.41944937 -.00000061  00000+0  31787-3 0  9999
2 25623  51.9964 120.1876 0011941 170.1609 270.4900 11.86559657119533
GLOBALSTAR M038 [-]     
1 25624U 99004D   24033.50349265 -.00000082  00000+0  10755-3 0  9998
2 25624  51.9976  73.4386 0002135  99.2772  48.6690 12.32492435140638
GLOBALSTAR M022 [-]     
1 25649U 99012A   24033.49736197 -.00000079  00000+0  98337-4 0  9995
2 25649  52.0009 211.9772 0001500 248.9530 126.9504 12.02477388116142
GLOBALSTAR M041 [-]     
1 25650U 99012B   24033.46871427 -.00000031  00000+0  69837-3 0  9990
2 25650  52.0023  78.2411 0002237  59.6482 300.4575 11.96656108118336
GLOBALSTAR M046 [-]     
1 25651U 99012C   24033.58551845 -.00000145  00000+0 -61618-3 0  9999
2 25651  52.0037 180.1425 0001715   5.1219  74.3127 12.09384570123099
GLOBALSTAR M037 [+]     
1 25652U 99012D   24033.62721194 -.00000036  00000+0  37839-3 0  9997
2 25652  51.9993 268.3990 0002174 131.3875 246.5095 12.62395230148059
